[{"CCSDS_OMM_VERS":"2.0","COMMENT":"GENERATED VIA SPACE-TRACK.ORG API","CREATION_DATE":"2015-11-07T06:35:37","ORIGINATOR":"18 SPCS","OBJECT_NAME":"GALILEO-FM3","OBJECT_ID":"2012-055A","CENTER_NAME":"EARTH","REF_FRAME":"TEME","TIME_SYSTEM":"UTC","MEAN_ELEMENT_THEORY":"SGP4","EPOCH":"2015-11-06T21:54:16.480800","MEAN_MOTION":"1.70473854","ECCENTRICITY":"0.00023810","INCLINATION":"54.9641","RA_OF_ASC_NODE":"208.3499","ARG_OF_PERICENTER":"221.4795","MEAN_ANOMALY":"138.5612","EPHEMERIS_TYPE":"0","CLASSIFICATION_TYPE":"U","NORAD_CAT_ID":"38857","ELEMENT_SET_NO":"999","REV_AT_EPOCH":"1910","BSTAR":"0.00000000000000","MEAN_MOTION_DOT":"-0.00000013","MEAN_MOTION_DDOT":"0.0000000000000","SEMIMAJOR_AXIS":"29600.336","PERIOD":"844.704","APOAPSIS":"23229.249","PERIAPSIS":"23215.154","OBJECT_TYPE":"PAYLOAD","RCS_SIZE":"LARGE","COUNTRY_CODE":"ESA","LAUNCH_DATE":"2012-10-12","SITE":"FRGUI","DECAY_DATE":null,"FILE":"1950334","GP_ID":"101489768","TLE_LINE0":"0 GALILEO-FM3","TLE_LINE1":"1 38857U 12055A   15310.91269075 -.00000013  00000-0  00000+0 0  9997","TLE_LINE2":"2 38857  54.9641 208.3499 0002381 221.4795 138.5612  1.70473854 19107"},{"CCSDS_OMM_VERS":"2.0","COMMENT":"GENERATED VIA SPACE-TRACK.ORG API","CREATION_DATE":"2015-11-09T16:17:10","ORIGINATOR":"18 SPCS","OBJECT_NAME":"GALILEO-FM3","OBJECT_ID":"2012-055A","CENTER_NAME":"EARTH","REF_FRAME":"TEME","TIME_SYSTEM":"UTC","MEAN_ELEMENT_THEORY":"SGP4","EPOCH":"2015-11-08T02:03:39.155904","MEAN_MOTION":"1.70473869","ECCENTRICITY":"0.00023400","INCLINATION":"54.9637","RA_OF_ASC_NODE":"208.3175","ARG_OF_PERICENTER":"220.6863","MEAN_ANOMALY":"139.3615","EPHEMERIS_TYPE":"0","CLASSIFICATION_TYPE":"U","NORAD_CAT_ID":"38857","ELEMENT_SET_NO":"999","REV_AT_EPOCH":"1911","BSTAR":"0.00000000000000","MEAN_MOTION_DOT":"-0.00000004","MEAN_MOTION_DDOT":"0.0000000000000","SEMIMAJOR_AXIS":"29600.335","PERIOD":"844.704","APOAPSIS":"23229.126","PERIAPSIS":"23215.273","OBJECT_TYPE":"PAYLOAD","RCS_SIZE":"LARGE","COUNTRY_CODE":"ESA","LAUNCH_DATE":"2012-10-12","SITE":"FRGUI","DECAY_DATE":null,"FILE":"1951388","GP_ID":"101541208","TLE_LINE0":"0 GALILEO-FM3","TLE_LINE1":"1 38857U 12055A   15312.08586986 -.00000004 +00000-0 +00000-0 0  9991","TLE_LINE2":"2 38857 054.9637 208.3175 0002340 220.6863 139.3615 01.70473869019114"},{"CCSDS_OMM_VERS":"2.0","COMMENT":"GENERATED VIA SPACE-TRACK.ORG API","CREATION_DATE":"2015-11-13T06:21:16","ORIGINATOR":"18 SPCS","OBJECT_NAME":"GALILEO-FM3","OBJECT_ID":"2012-055A","CENTER_NAME":"EARTH","REF_FRAME":"TEME","TIME_SYSTEM":"UTC","MEAN_ELEMENT_THEORY":"SGP4","EPOCH":"2015-11-12T18:41:10.299552","MEAN_MOTION":"1.70473813","ECCENTRICITY":"0.00022450","INCLINATION":"54.9627","RA_OF_ASC_NODE":"208.1871","ARG_OF_PERICENTER":"218.1151","MEAN_ANOMALY":"141.9649","EPHEMERIS_TYPE":"0","CLASSIFICATION_TYPE":"U","NORAD_CAT_ID":"38857","ELEMENT_SET_NO":"999","REV_AT_EPOCH":"1920","BSTAR":"0.00000000000000","MEAN_MOTION_DOT":"0.00000032","MEAN_MOTION_DDOT":"0.0000000000000","SEMIMAJOR_AXIS":"29600.341","PERIOD":"844.704","APOAPSIS":"23228.851","PERIAPSIS":"23215.561","OBJECT_TYPE":"PAYLOAD","RCS_SIZE":"LARGE","COUNTRY_CODE":"ESA","LAUNCH_DATE":"2012-10-12","SITE":"FRGUI","DECAY_DATE":null,"FILE":"1952784","GP_ID":"101597688","TLE_LINE0":"0 GALILEO-FM3","TLE_LINE1":"1 38857U 12055A   15316.77859143  .00000032  00000-0  00000+0 0  9998","TLE_LINE2":"2 38857  54.9627 208.1871 0002245 218.1151 141.9649  1.70473813 19205"},{"CCSDS_OMM_VERS":"2.0","COMMENT":"GENERATED VIA SPACE-TRACK.ORG API","CREATION_DATE":"2015-11-16T06:31:17","ORIGINATOR":"18 SPCS","OBJECT_NAME":"GALILEO-FM3","OBJECT_ID":"2012-055A","CENTER_NAME":"EARTH","REF_FRAME":"TEME","TIME_SYSTEM":"UTC","MEAN_ELEMENT_THEORY":"SGP4","EPOCH":"2015-11-15T17:04:34.928832","MEAN_MOTION":"1.70473725","ECCENTRICITY":"0.00021700","INCLINATION":"54.9622","RA_OF_ASC_NODE":"208.1057","ARG_OF_PERICENTER":"215.3611","MEAN_ANOMALY":"144.7218","EPHEMERIS_TYPE":"0","CLASSIFICATION_TYPE":"U","NORAD_CAT_ID":"38857","ELEMENT_SET_NO":"999","REV_AT_EPOCH":"1925","BSTAR":"0.00000000000000","MEAN_MOTION_DOT":"0.00000037","MEAN_MOTION_DDOT":"0.0000000000000","SEMIMAJOR_AXIS":"29600.351","PERIOD":"844.704","APOAPSIS":"23228.640","PERIAPSIS":"23215.793","OBJECT_TYPE":"PAYLOAD","RCS_SIZE":"LARGE","COUNTRY_CODE":"ESA","LAUNCH_DATE":"2012-10-12","SITE":"FRGUI","DECAY_DATE":null,"FILE":"1953991","GP_ID":"101652374","TLE_LINE0":"0 GALILEO-FM3","TLE_LINE1":"1 38857U 12055A   15319.71151538  .00000037  00000-0  00000+0 0  9993","TLE_LINE2":"2 38857  54.9622 208.1057 0002170 215.3611 144.7218  1.70473725 19253"},{"CCSDS_OMM_VERS":"2.0","COMMENT":"GENERATED VIA SPACE-TRACK.ORG API","CREATION_DATE":"2015-11-18T17:50:20","ORIGINATOR":"18 SPCS","OBJECT_NAME":"GALILEO-FM3","OBJECT_ID":"2012-055A","CENTER_NAME":"EARTH","REF_FRAME":"TEME","TIME_SYSTEM":"UTC","MEAN_ELEMENT_THEORY":"SGP4","EPOCH":"2015-11-16T21:13:56.050464","MEAN_MOTION":"1.70473706","ECCENTRICITY":"0.00021530","INCLINATION":"54.9620","RA_OF_ASC_NODE":"208.0731","ARG_OF_PERICENTER":"214.5247","MEAN_ANOMALY":"145.5544","EPHEMERIS_TYPE":"0","CLASSIFICATION_TYPE":"U","NORAD_CAT_ID":"38857","ELEMENT_SET_NO":"999","REV_AT_EPOCH":"1926","BSTAR":"0.00000000000000","MEAN_MOTION_DOT":"0.00000034","MEAN_MOTION_DDOT":"0.0000000000000","SEMIMAJOR_AXIS":"29600.354","PERIOD":"844.705","APOAPSIS":"23228.592","PERIAPSIS":"23215.846","OBJECT_TYPE":"PAYLOAD","RCS_SIZE":"LARGE","COUNTRY_CODE":"ESA","LAUNCH_DATE":"2012-10-12","SITE":"FRGUI","DECAY_DATE":null,"FILE":"1955025","GP_ID":"101702458","TLE_LINE0":"0 GALILEO-FM3","TLE_LINE1":"1 38857U 12055A   15320.88467651 +.00000034 +00000-0 +00000-0 0  9997","TLE_LINE2":"2 38857 054.9620 208.0731 0002153 214.5247 145.5544 01.70473706019267"},{"CCSDS_OMM_VERS":"2.0","COMMENT":"GENERATED VIA SPACE-TRACK.ORG API","CREATION_DATE":"2015-11-18T14:37:07","ORIGINATOR":"18 SPCS","OBJECT_NAME":"GALILEO-FM3","OBJECT_ID":"2012-055A","CENTER_NAME":"EARTH","REF_FRAME":"TEME","TIME_SYSTEM":"UTC","MEAN_ELEMENT_THEORY":"SGP4","EPOCH":"2015-11-18T01:23:17.083104","MEAN_MOTION":"1.70473683","ECCENTRICITY":"0.00021380","INCLINATION":"54.9618","RA_OF_ASC_NODE":"208.0404","ARG_OF_PERICENTER":"213.7080","MEAN_ANOMALY":"146.3665","EPHEMERIS_TYPE":"0","CLASSIFICATION_TYPE":"U","NORAD_CAT_ID":"38857","ELEMENT_SET_NO":"999","REV_AT_EPOCH":"1929","BSTAR":"0.00000000000000","MEAN_MOTION_DOT":"0.00000029","MEAN_MOTION_DDOT":"0.0000000000000","SEMIMAJOR_AXIS":"29600.356","PERIOD":"844.705","APOAPSIS":"23228.550","PERIAPSIS":"23215.893","OBJECT_TYPE":"PAYLOAD","RCS_SIZE":"LARGE","COUNTRY_CODE":"ESA","LAUNCH_DATE":"2012-10-12","SITE":"FRGUI","DECAY_DATE":null,"FILE":"1954906","GP_ID":"101691103","TLE_LINE0":"0 GALILEO-FM3","TLE_LINE1":"1 38857U 12055A   15322.05783661  .00000029  00000-0  00000+0 0  9993","TLE_LINE2":"2 38857  54.9618 208.0404 0002138 213.7080 146.3665  1.70473683 19290"},{"CCSDS_OMM_VERS":"2.0","COMMENT":"GENERATED VIA SPACE-TRACK.ORG API","CREATION_DATE":"2015-11-20T18:05:30","ORIGINATOR":"18 SPCS","OBJECT_NAME":"GALILEO-FM3","OBJECT_ID":"2012-055A","CENTER_NAME":"EARTH","REF_FRAME":"TEME","TIME_SYSTEM":"UTC","MEAN_ELEMENT_THEORY":"SGP4","EPOCH":"2015-11-19T19:37:19.042464","MEAN_MOTION":"1.70473657","ECCENTRICITY":"0.00021140","INCLINATION":"54.9616","RA_OF_ASC_NODE":"207.9914","ARG_OF_PERICENTER":"212.6559","MEAN_ANOMALY":"147.4144","EPHEMERIS_TYPE":"0","CLASSIFICATION_TYPE":"U","NORAD_CAT_ID":"38857","ELEMENT_SET_NO":"999","REV_AT_EPOCH":"1931","BSTAR":"0.00000000000000","MEAN_MOTION_DOT":"0.00000025","MEAN_MOTION_DDOT":"0.0000000000000","SEMIMAJOR_AXIS":"29600.359","PERIOD":"844.705","APOAPSIS":"23228.482","PERIAPSIS":"23215.967","OBJECT_TYPE":"PAYLOAD","RCS_SIZE":"LARGE","COUNTRY_CODE":"ESA","LAUNCH_DATE":"2012-10-12","SITE":"FRGUI","DECAY_DATE":null,"FILE":"1955919","GP_ID":"101738997","TLE_LINE0":"0 GALILEO-FM3","TLE_LINE1":"1 38857U 12055A   15323.81758151 +.00000025 +00000-0 +00000-0 0  9991","TLE_LINE2":"2 38857 054.9616 207.9914 0002114 212.6559 147.4144 01.70473657019313"},{"CCSDS_OMM_VERS":"2.0","COMMENT":"GENERATED VIA SPACE-TRACK.ORG API","CREATION_DATE":"2015-11-22T06:29:32","ORIGINATOR":"18 SPCS","OBJECT_NAME":"GALILEO-FM3","OBJECT_ID":"2012-055A","CENTER_NAME":"EARTH","REF_FRAME":"TEME","TIME_SYSTEM":"UTC","MEAN_ELEMENT_THEORY":"SGP4","EPOCH":"2015-11-21T13:51:22.050720","MEAN_MOTION":"1.70473644","ECCENTRICITY":"0.00020760","INCLINATION":"54.9613","RA_OF_ASC_NODE":"207.9424","ARG_OF_PERICENTER":"211.0516","MEAN_ANOMALY":"149.0222","EPHEMERIS_TYPE":"0","CLASSIFICATION_TYPE":"U","NORAD_CAT_ID":"38857","ELEMENT_SET_NO":"999","REV_AT_EPOCH":"1935","BSTAR":"0.00000000000000","MEAN_MOTION_DOT":"0.00000027","MEAN_MOTION_DDOT":"0.0000000000000","SEMIMAJOR_AXIS":"29600.361","PERIOD":"844.705","APOAPSIS":"23228.371","PERIAPSIS":"23216.081","OBJECT_TYPE":"PAYLOAD","RCS_SIZE":"LARGE","COUNTRY_CODE":"ESA","LAUNCH_DATE":"2012-10-12","SITE":"FRGUI","DECAY_DATE":null,"FILE":"1956530","GP_ID":"101762563","TLE_LINE0":"0 GALILEO-FM3","TLE_LINE1":"1 38857U 12055A   15325.57733855  .00000027  00000-0  00000+0 0  9991","TLE_LINE2":"2 38857  54.9613 207.9424 0002076 211.0516 149.0222  1.70473644 19354"}]